#aV2016  3 17  0  0  0.00000000     288 DD+AD WGS84 FIT  NGA
## 1888 345600.00000000   300.00000000 57464 0.0000000000000
+   31     1  2  3  5  6  7  8  9 10 11 12 13 14 15 16 17 18
+         19 20 21 22 23 24 25 26 27 28 29 30 31 32  0  0  0
+          0  0  0  0  0  0  0  0  0  0  0  0  0  0  0  0  0
+          0  0  0  0  0  0  0  0  0  0  0  0  0  0  0  0  0
+          0  0  0  0  0  0  0  0  0  0  0  0  0  0  0  0  0
++         2  2  2  2  2  2  2  2  2  2  2  2  2  2  2  2  2
++         2  2  2  2  2  2  2  2  2  2  2  2  2  2  0  0  0
++         0  0  0  0  0  0  0  0  0  0  0  0  0  0  0  0  0
++         0  0  0  0  0  0  0  0  0  0  0  0  0  0  0  0  0
++         0  0  0  0  0  0  0  0  0  0  0  0  0  0  0  0  0
%c cc cc ccc ccc cccc cccc cccc cccc ccccc ccccc ccccc ccccc
%c cc cc ccc ccc cccc cccc cccc cccc ccccc ccccc ccccc ccccc
%f  0.0000000  0.000000000  0.00000000000  0.000000000000000
%f  0.0000000  0.000000000  0.00000000000  0.000000000000000
%i    0    0    0    0      0      0      0      0         0
%i    0    0    0    0      0      0      0      0         0
/*      NGA, ST. LOUIS,MO.                                  
/*   EPHEMERIS COMPUTED FROM 2 DAYS OF DATA                 
/*   EPOCHA v2.4 SMOOTHER                                   
/*   G1762 IERS2010 SATAF SATAPC                            
*  2016  3 17  5 10  0.00000000
P  1  21401.867828  11867.733953  10524.027424     14.586099                    
V  1   7620.165716  11237.566432 -27753.118801      0.010808                    
P  2 -12244.100569 -21803.665219   9963.321710    599.050714                    
V  2  10410.270963   6402.042303  27610.842081     -0.003529                    
P  3  14875.015358   3393.006003  21744.348996    -36.978999                    
V  3  -7539.720560  26557.382350   1002.724069     -0.043998                    
P  5  -4746.905928 -21764.982865 -14383.945510   -136.963035                    
V  5   7302.947445 -16930.822519  23512.138466      0.033018                    
P  6    967.031520 -18249.502442  19286.271743    161.548566                    
V  6  17932.701621  16675.151256  14885.981252      0.058237                    
P  7  16721.264000  -2636.601099 -20433.300728    464.875997                    
V  7  17126.153898  19736.709148  11009.517462     -0.018598                    
P  8  18312.074215   7895.395224 -17499.506136    -27.779263                    
V  8 -21211.980338   7137.968203 -18888.242706     -0.014525                    
P  9  25242.998703  -8014.801337  -2111.331220     91.386905                    
V  9   3313.302093   2217.834684  31473.312112      0.075414                    
P 10 -10796.848733  23554.778446  -5681.297202     25.527978                    
V 10   -724.361189  -7732.907608 -30669.556500     -0.085115                    
P 11  24244.368553  10855.584518    547.174216   -636.982879                    
V 11   -833.368332   4922.017737 -30206.578182     -0.015624                    
P 12 -12442.970004  -8048.822324  21941.119734    372.720885                    
V 12   9257.803313 -26472.072859  -4222.951424      0.015250                    
P 13 -10062.305754 -13083.254383 -20925.559032     -4.074443                    
V 13  25917.998595  -4218.555257  -9977.293540     -0.028227                    
P 14 -14709.410606  14415.137987  16938.948717     -2.978341                    
V 14 -21075.045969   1806.430578 -20286.437957     -0.022087                    
P 15 -21912.080385  -4605.564621 -14664.708069   -302.092966                    
V 15  16792.530483  -7815.469488 -22481.756736     -0.017984                    
P 16   2167.774673  21952.665415 -14588.520903    -31.621617                    
V 16  -7850.468637  16792.908067  24633.557436      0.029293                    
P 17  15962.886591 -14241.545058  15947.042216   -202.143800                    
V 17  19630.669356  -2272.561501 -22322.598392     -0.004492                    
P 18 -15385.821338  15034.639253 -14877.286641    494.496207                    
V 18   1938.866185 -20180.568043 -21904.668782      0.041220                    
P 19   6020.440753 -15226.820420  20764.518694   -525.330204                    
V 19  26561.826247  -3397.654562  -9705.160100     -0.001700                    
P 20 -14680.701895  -7249.808565 -21062.217992    399.812397                    
V 20   5818.963371 -25896.242844   4945.544215      0.025398                    
P 21 -14496.596688   6879.600777 -20461.015605   -515.190658                    
V 21 -19264.503583 -19994.103718   6419.475745     -0.016512                    
P 22   7231.614144  20164.384745  15860.808648    380.022242                    
V 22  -7523.340675  18592.506393 -20671.216400     -0.066973                    
P 23  25419.343122     43.013126   8616.520971   -165.026244                    
V 23  -9640.085019   5114.511910  28577.164500     -0.017967                    
P 24 -21525.558015 -13794.826196   7502.551461    -14.022359                    
V 24  -4805.326161  -8735.902473 -29440.454373     -0.005884                    
P 25 -15870.187989   5524.548056  20404.961027   -135.601369                    
V 25   6338.678276 -25405.869791  11930.460052     -0.069780                    
P 26  -3809.085255  25835.110450  -4714.531303   -295.540123                    
V 26  -4304.386607   5020.316776  31030.356131     -0.146034                    
P 27   7899.307202  13283.648200 -21640.504284     72.775934                    
V 27 -26449.251666   7064.536529  -5168.098868      0.037464                    
P 28  12301.051191 -22673.025990  -5585.896472    509.637487                    
V 28   -891.044664   8098.162007 -31365.934562      0.025846                    
P 29 -26146.412752   4449.412604    820.118959    655.939533                    
V 29    558.235772  -2515.272681  32104.199514      0.005234                    
P 30   9308.487664 -12615.099838 -21440.138906    107.522705                    
V 30  17872.025589  20564.246690  -4426.479917      0.038732                    
P 31    591.591826  19237.545609  18246.428968    278.056948                    
V 31 -16604.125925 -16076.449504  17945.679575     -0.016831                    
P 32 -12947.203507  15664.247562  17100.216891      9.852219                    
V 32 -21477.808443   3664.284510 -19619.466350     -0.006265                    
EOF
